start=new Date('2022-04-29T00:00:00.000Z').valueOf();
sats=[{"TLE_LINE1":"1 48409U 21038BJ  22118.54308361  .00000784  00000-0  71516-4 0  9996","EPHEMERIS_TYPE":"0","PERIAPSIS":"545.838","TIME_SYSTEM":"UTC","FILE":"3420061","COUNTRY_CODE":"US","OBJECT_TYPE":"PAYLOAD","MEAN_ANOMALY":"317.8374","REF_FRAME":"TEME","CENTER_NAME":"EARTH","CLASSIFICATION_TYPE":"U","BSTAR":"0.00007151600000","MEAN_MOTION_DDOT":"0.0000000000000","ARG_OF_PERICENTER":"42.2768","ECCENTRICITY":"0.00019920","ELEMENT_SET_NO":"999","GP_ID":"202217387","INCLINATION":"53.0553","RA_OF_ASC_NODE":"201.5105","REV_AT_EPOCH":"5455","SEMIMAJOR_AXIS":"6925.352","PERIOD":"95.592","MEAN_MOTION_DOT":"0.00000784","NORAD_CAT_ID":"48409","OBJECT_NAME":"STARLINK-2596","TLE_LINE2":"2 48409  53.0553 201.5105 0001992  42.2768 317.8374 15.06398837 54554","MEAN_ELEMENT_THEORY":"SGP4","LAUNCH_DATE":"2021-05-04","RCS_SIZE":"LARGE","DECAY_DATE":null,"SITE":"AFETR","EPOCH":"2022-04-28T13:02:02.423904","APOAPSIS":"548.597","OBJECT_ID":"2021-038BJ","MEAN_MOTION":"15.06398837"},{"COUNTRY_CODE":"US","MEAN_ANOMALY":"155.3428","OBJECT_TYPE":"PAYLOAD","TIME_SYSTEM":"UTC","PERIAPSIS":"545.729","FILE":"3420061","EPHEMERIS_TYPE":"0","TLE_LINE1":"1 48410U 21038BK  22118.58334491  .00007194  00000-0  50122-3 0  9996","APOAPSIS":"548.639","MEAN_MOTION":"15.06409559","OBJECT_ID":"2021-038BK","RCS_SIZE":"LARGE","SITE":"AFETR","DECAY_DATE":null,"EPOCH":"2022-04-28T14:00:01.000224","MEAN_ELEMENT_THEORY":"SGP4","LAUNCH_DATE":"2021-05-04","OBJECT_NAME":"STARLINK-2563","TLE_LINE2":"2 48410  53.0525 151.3319 0002101  38.1933 155.3428 15.06409559  3592","SEMIMAJOR_AXIS":"6925.319","PERIOD":"95.592","MEAN_MOTION_DOT":"0.00007194","NORAD_CAT_ID":"48410","INCLINATION":"53.0525","RA_OF_ASC_NODE":"151.3319","REV_AT_EPOCH":"359","ARG_OF_PERICENTER":"38.1933","ECCENTRICITY":"0.00021010","ELEMENT_SET_NO":"999","GP_ID":"202217639","REF_FRAME":"TEME","CENTER_NAME":"EARTH","CLASSIFICATION_TYPE":"U","BSTAR":"0.00050122000000","MEAN_MOTION_DDOT":"0.0000000000000"},{"OBJECT_ID":"2021-038BL","APOAPSIS":"548.506","MEAN_MOTION":"15.06391694","EPOCH":"2022-04-28T22:00:01.999584","SITE":"AFETR","DECAY_DATE":null,"RCS_SIZE":"LARGE","LAUNCH_DATE":"2021-05-04","MEAN_ELEMENT_THEORY":"SGP4","TLE_LINE2":"2 48411  53.0529 144.8287 0001829  46.5422  63.2669 15.06391694 55951","OBJECT_NAME":"STARLINK-2505","NORAD_CAT_ID":"48411","MEAN_MOTION_DOT":"0.00013371","PERIOD":"95.593","SEMIMAJOR_AXIS":"6925.374","INCLINATION":"53.0529","REV_AT_EPOCH":"5595","RA_OF_ASC_NODE":"144.8287","GP_ID":"202226639","ELEMENT_SET_NO":"999","ECCENTRICITY":"0.00018290","ARG_OF_PERICENTER":"46.5422","MEAN_MOTION_DDOT":"0.0000000000000","BSTAR":"0.00091503000000","CLASSIFICATION_TYPE":"U","CENTER_NAME":"EARTH","REF_FRAME":"TEME","OBJECT_TYPE":"PAYLOAD","MEAN_ANOMALY":"63.2669","COUNTRY_CODE":"US","FILE":"3420314","TIME_SYSTEM":"UTC","PERIAPSIS":"545.972","EPHEMERIS_TYPE":"0","TLE_LINE1":"1 48411U 21038BL  22118.91668981  .00013371  00000-0  91503-3 0  9990"},{"TLE_LINE2":"2 48412  53.0521 146.3266 0002175  39.6880 186.4880 15.06395568  3594","OBJECT_NAME":"STARLINK-2581","MEAN_ELEMENT_THEORY":"SGP4","LAUNCH_DATE":"2021-05-04","SITE":"AFETR","DECAY_DATE":null,"EPOCH":"2022-04-28T14:00:01.000224","RCS_SIZE":"LARGE","APOAPSIS":"548.733","MEAN_MOTION":"15.06395568","OBJECT_ID":"2021-038BM","BSTAR":"0.00182920000000","MEAN_MOTION_DDOT":"0.0000000000000","REF_FRAME":"TEME","CENTER_NAME":"EARTH","CLASSIFICATION_TYPE":"U","ELEMENT_SET_NO":"999","ECCENTRICITY":"0.00021750","GP_ID":"202216640","ARG_OF_PERICENTER":"39.6880","RA_OF_ASC_NODE":"146.3266","INCLINATION":"53.0521","REV_AT_EPOCH":"359","MEAN_MOTION_DOT":"0.00027067","NORAD_CAT_ID":"48412","SEMIMAJOR_AXIS":"6925.362","PERIOD":"95.592","PERIAPSIS":"545.721","TIME_SYSTEM":"UTC","FILE":"3420061","MEAN_ANOMALY":"186.4880","OBJECT_TYPE":"PAYLOAD","COUNTRY_CODE":"US","TLE_LINE1":"1 48412U 21038BM  22118.58334491  .00027067  00000-0  18292-2 0  9990","EPHEMERIS_TYPE":"0"},{"LAUNCH_DATE":"2021-05-09","MEAN_ELEMENT_THEORY":"SGP4","OBJECT_NAME":"STARLINK-2461","TLE_LINE2":"2 48428  53.0573  41.5874 0001358  75.0521 285.0619 15.06408769 53866","APOAPSIS":"548.127","OBJECT_ID":"2021-040A","MEAN_MOTION":"15.06408769","RCS_SIZE":"LARGE","EPOCH":"2022-04-28T12:35:29.482656","SITE":"AFETR","DECAY_DATE":null,"ARG_OF_PERICENTER":"75.0521","GP_ID":"202217142","ELEMENT_SET_NO":"999","ECCENTRICITY":"0.00013580","CLASSIFICATION_TYPE":"U","CENTER_NAME":"EARTH","REF_FRAME":"TEME","MEAN_MOTION_DDOT":"0.0000000000000","BSTAR":"0.00014386000000","PERIOD":"95.592","SEMIMAJOR_AXIS":"6925.322","NORAD_CAT_ID":"48428","MEAN_MOTION_DOT":"0.00001862","INCLINATION":"53.0573","REV_AT_EPOCH":"5386","RA_OF_ASC_NODE":"41.5874","COUNTRY_CODE":"US","MEAN_ANOMALY":"285.0619","OBJECT_TYPE":"PAYLOAD","FILE":"3420061","PERIAPSIS":"546.246","TIME_SYSTEM":"UTC","TLE_LINE1":"1 48428U 21040A   22118.52464679  .00001862  00000-0  14386-3 0  9992","EPHEMERIS_TYPE":"0"},{"TLE_LINE1":"1 48429U 21040B   22118.91668981 -.00033855  00000-0 -22641-2 0  9999","EPHEMERIS_TYPE":"0","PERIAPSIS":"546.386","TIME_SYSTEM":"UTC","FILE":"3420093","OBJECT_TYPE":"PAYLOAD","MEAN_ANOMALY":"49.0163","COUNTRY_CODE":"US","BSTAR":"-0.00226410000000","MEAN_MOTION_DDOT":"0.0000000000000","REF_FRAME":"TEME","CENTER_NAME":"EARTH","CLASSIFICATION_TYPE":"U","ECCENTRICITY":"0.00011490","ELEMENT_SET_NO":"999","GP_ID":"202221328","ARG_OF_PERICENTER":"88.4181","INCLINATION":"53.0545","REV_AT_EPOCH":"5561","RA_OF_ASC_NODE":"9.8345","MEAN_MOTION_DOT":"-0.00033855","NORAD_CAT_ID":"48429","SEMIMAJOR_AXIS":"6925.316","PERIOD":"95.591","TLE_LINE2":"2 48429  53.0545   9.8345 0001149  88.4181  49.0163 15.06410493 55618","OBJECT_NAME":"STARLINK-2749","MEAN_ELEMENT_THEORY":"SGP4","LAUNCH_DATE":"2021-05-09","DECAY_DATE":null,"SITE":"AFETR","EPOCH":"2022-04-28T22:00:01.999584","RCS_SIZE":"LARGE","APOAPSIS":"547.977","MEAN_MOTION":"15.06410493","OBJECT_ID":"2021-040B"},{"MEAN_ANOMALY":"230.1732","OBJECT_TYPE":"PAYLOAD","COUNTRY_CODE":"US","FILE":"3420061","TIME_SYSTEM":"UTC","PERIAPSIS":"546.340","EPHEMERIS_TYPE":"0","TLE_LINE1":"1 48430U 21040C   22118.58334491  .00035677  00000-0  24026-2 0  9991","APOAPSIS":"548.150","MEAN_MOTION":"15.06389673","OBJECT_ID":"2021-040C","EPOCH":"2022-04-28T14:00:01.000224","SITE":"AFETR","DECAY_DATE":null,"RCS_SIZE":"LARGE","LAUNCH_DATE":"2021-05-09","MEAN_ELEMENT_THEORY":"SGP4","TLE_LINE2":"2 48430  53.0558  11.3249 0001307  78.5724 230.1732 15.06389673  3594","OBJECT_NAME":"STARLINK-2729","NORAD_CAT_ID":"48430","MEAN_MOTION_DOT":"0.00035677","PERIOD":"95.593","SEMIMAJOR_AXIS":"6925.380","RA_OF_ASC_NODE":"11.3249","REV_AT_EPOCH":"359","INCLINATION":"53.0558","GP_ID":"202217641","ELEMENT_SET_NO":"999","ECCENTRICITY":"0.00013070","ARG_OF_PERICENTER":"78.5724","MEAN_MOTION_DDOT":"0.0000000000000","BSTAR":"0.00240260000000","CLASSIFICATION_TYPE":"U","REF_FRAME":"TEME","CENTER_NAME":"EARTH"},{"LAUNCH_DATE":"2021-05-09","MEAN_ELEMENT_THEORY":"SGP4","TLE_LINE2":"2 48431  53.0558   4.8241 0001476  76.7338 168.2104 15.06408629 54865","OBJECT_NAME":"STARLINK-2700","MEAN_MOTION":"15.06408629","APOAPSIS":"548.209","OBJECT_ID":"2021-040D","EPOCH":"2022-04-28T22:00:01.999584","DECAY_DATE":null,"SITE":"AFETR","RCS_SIZE":"LARGE","GP_ID":"202226790","ELEMENT_SET_NO":"999","ECCENTRICITY":"0.00014760","ARG_OF_PERICENTER":"76.7338","MEAN_MOTION_DDOT":"0.0000000000000","BSTAR":"-0.00181860000000","CLASSIFICATION_TYPE":"U","CENTER_NAME":"EARTH","REF_FRAME":"TEME","NORAD_CAT_ID":"48431","MEAN_MOTION_DOT":"-0.00027273","PERIOD":"95.592","SEMIMAJOR_AXIS":"6925.322","REV_AT_EPOCH":"5486","RA_OF_ASC_NODE":"4.8241","INCLINATION":"53.0558","MEAN_ANOMALY":"168.2104","OBJECT_TYPE":"PAYLOAD","COUNTRY_CODE":"US","FILE":"3420324","TIME_SYSTEM":"UTC","PERIAPSIS":"546.165","TLE_LINE1":"1 48431U 21040D   22118.91668981 -.00027273  00000-0 -18186-2 0  9998","EPHEMERIS_TYPE":"0"},{"EPHEMERIS_TYPE":"0","TLE_LINE1":"1 48432U 21040E   22118.91668981 -.00029186  00000-0 -19475-2 0  9996","COUNTRY_CODE":"US","OBJECT_TYPE":"PAYLOAD","MEAN_ANOMALY":"111.0166","FILE":"3420325","TIME_SYSTEM":"UTC","PERIAPSIS":"546.101","PERIOD":"95.591","SEMIMAJOR_AXIS":"6925.290","NORAD_CAT_ID":"48432","MEAN_MOTION_DOT":"-0.00029186","RA_OF_ASC_NODE":"359.8368","INCLINATION":"53.0552","REV_AT_EPOCH":"5508","ARG_OF_PERICENTER":"81.4545","GP_ID":"202226803","ELEMENT_SET_NO":"999","ECCENTRICITY":"0.00015220","CLASSIFICATION_TYPE":"U","CENTER_NAME":"EARTH","REF_FRAME":"TEME","MEAN_MOTION_DDOT":"0.0000000000000","BSTAR":"-0.00194750000000","APOAPSIS":"548.209","OBJECT_ID":"2021-040E","MEAN_MOTION":"15.06419083","RCS_SIZE":"LARGE","EPOCH":"2022-04-28T22:00:01.999584","DECAY_DATE":null,"SITE":"AFETR","LAUNCH_DATE":"2021-05-09","MEAN_ELEMENT_THEORY":"SGP4","OBJECT_NAME":"STARLINK-2680","TLE_LINE2":"2 48432  53.0552 359.8368 0001522  81.4545 111.0166 15.06419083 55083"},{"FILE":"3420061","TIME_SYSTEM":"UTC","PERIAPSIS":"546.205","COUNTRY_CODE":"US","MEAN_ANOMALY":"323.5297","OBJECT_TYPE":"PAYLOAD","TLE_LINE1":"1 48433U 21040F   22118.58334491  .00028657  00000-0  19349-2 0  9996","EPHEMERIS_TYPE":"0","OBJECT_NAME":"STARLINK-2699","TLE_LINE2":"2 48433  53.0571   6.3227 0001451  92.6867 323.5297 15.06401113  3606","LAUNCH_DATE":"2021-05-09","MEAN_ELEMENT_THEORY":"SGP4","RCS_SIZE":"LARGE","EPOCH":"2022-04-28T14:00:01.000224","DECAY_DATE":null,"SITE":"AFETR","APOAPSIS":"548.215","OBJECT_ID":"2021-040F","MEAN_MOTION":"15.06401113","CLASSIFICATION_TYPE":"U","CENTER_NAME":"EARTH","REF_FRAME":"TEME","MEAN_MOTION_DDOT":"0.0000000000000","BSTAR":"0.00193490000000","ARG_OF_PERICENTER":"92.6867","GP_ID":"202217890","ELEMENT_SET_NO":"999","ECCENTRICITY":"0.00014510","INCLINATION":"53.0571","REV_AT_EPOCH":"360","RA_OF_ASC_NODE":"6.3227","PERIOD":"95.592","SEMIMAJOR_AXIS":"6925.345","NORAD_CAT_ID":"48433","MEAN_MOTION_DOT":"0.00028657"}];
